{"type": "FeatureCollection", "features": [ {"type": "Feature", "properties": {"norad_id": 66728, "name": "FLOCK 4H-25", "group": "last-30-days", "lat": 1.164866444523893, "lon": 72.55444269265077, "alt_km": 514.4502717874984, "timestamp": "2025-12-27T03:58:42.931507+00:00", "meta": {"OBJECT_NAME": "FLOCK 4H-25", "OBJECT_ID": "2025-276BQ", "EPOCH": "2025-12-26T18:28:58.309248", "MEAN_MOTION": 15.18261428, "ECCENTRICITY": 0.0001746, "INCLINATION": 97.4391, "RA_OF_ASC_NODE": 72.3176, "ARG_OF_PERICENTER": 113.9532, "MEAN_ANOMALY": 246.1885, "EPHEMERIS_TYPE": 0, "CLASSIFICATION_TYPE": "U", "NORAD_CAT_ID": 66728, "ELEMENT_SET_NO": 999, "REV_AT_EPOCH": 353, "BSTAR": 0.00030761, "MEAN_MOTION_DOT": 6.235e-05, "MEAN_MOTION_DDOT": 0}, "tle": {"line1": "1 66728U 25276BQ  25360.77011932  .00006235  00000+0  30761-3 0  9992", "line2": "2 66728  97.4391  72.3176 0001746 113.9532 246.1885 15.18261428  3535"}}, "geometry": {"type": "Point", "coordinates": [72.55444269265077, 1.164866444523893]}}, {"type": "Feature", "properties": {"norad_id": 66729, "name": "FLOCK 4H-26", "group": "last-30-days", "lat": -69.35136517967501, "lon": -127.62791393154856, "alt_km": 519.1980755519216, "timestamp": "2025-12-27T03:58:42.931516+00:00", "meta": {"OBJECT_NAME": "FLOCK 4H-26", "OBJECT_ID": "2025-276BR", "EPOCH": "2025-12-26T15:47:49.095168", "MEAN_MOTION": 15.17202885, "ECCENTRICITY": 0.0003546, "INCLINATION": 97.4388, "RA_OF_ASC_NODE": 72.1602, "ARG_OF_PERICENTER": 238.163, "MEAN_ANOMALY": 121.9259, "EPHEMERIS_TYPE": 0, "CLASSIFICATION_TYPE": "U", "NORAD_CAT_ID": 66729, "ELEMENT_SET_NO": 999, "REV_AT_EPOCH": 423, "BSTAR": 0.000434, "MEAN_MOTION_DOT": 8.564e-05, "MEAN_MOTION_DDOT": 0}, "tle": {"line1": "1 66729U 25276BR  25360.65820712  .00008564  00000+0  43400-3 0  9995", "line2": "2 66729  97.4388  72.1602 0003546 238.1630 121.9259 15.17202885  4237"}}, "geometry": {"type": "Point", "coordinates": [-127.62791393154856, -69.35136517967501]}}, {"type": "Feature", "properties": {"norad_id": 66730, "name": "FLOCK 4H-27", "group": "last-30-days", "lat": -12.377861323944666, "lon": 74.3340422253957, "alt_km": 516.7062659357052, "timestamp": "2025-12-27T03:58:42.931525+00:00", "meta": {"OBJECT_NAME": "FLOCK 4H-27", "OBJECT_ID": "2025-276BS", "EPOCH": "2025-12-26T16:57:36.792576", "MEAN_MOTION": 15.18133982, "ECCENTRICITY": 0.0001364, "INCLINATION": 97.4366, "RA_OF_ASC_NODE": 72.2402, "ARG_OF_PERICENTER": 128.1634, "MEAN_ANOMALY": 231.9723, "EPHEMERIS_TYPE": 0, "CLASSIFICATION_TYPE": "U", "NORAD_CAT_ID": 66730, "ELEMENT_SET_NO": 999, "REV_AT_EPOCH": 424, "BSTAR": 0.00049621, "MEAN_MOTION_DOT": 0.00010067, "MEAN_MOTION_DDOT": 0}, "tle": {"line1": "1 66730U 25276BS  25360.70667584  .00010067  00000+0  49621-3 0  9991", "line2": "2 66730  97.4366  72.2402 0001364 128.1634 231.9723 15.18133982  4243"}}, "geometry": {"type": "Point", "coordinates": [74.3340422253957, -12.377861323944666]}}, {"type": "Feature", "properties": {"norad_id": 66731, "name": "FLOCK 4H-28", "group": "last-30-days", "lat": -70.74775156599594, "lon": -129.3099518450219, "alt_km": 519.3662220844517, "timestamp": "2025-12-27T03:58:42.931535+00:00", "meta": {"OBJECT_NAME": "FLOCK 4H-28", "OBJECT_ID": "2025-276BT", "EPOCH": "2025-12-26T15:47:24.703584", "MEAN_MOTION": 15.17188095, "ECCENTRICITY": 0.0003324, "INCLINATION": 97.4377, "RA_OF_ASC_NODE": 72.1566, "ARG_OF_PERICENTER": 243.5309, "MEAN_ANOMALY": 116.5584, "EPHEMERIS_TYPE": 0, "CLASSIFICATION_TYPE": "U", "NORAD_CAT_ID": 66731, "ELEMENT_SET_NO": 999, "REV_AT_EPOCH": 423, "BSTAR": 0.00050487, "MEAN_MOTION_DOT": 9.97e-05, "MEAN_MOTION_DDOT": 0}, "tle": {"line1": "1 66731U 25276BT  25360.65792481  .00009970  00000+0  50487-3 0  9994", "line2": "2 66731  97.4377  72.1566 0003324 243.5309 116.5584 15.17188095  4231"}}, "geometry": {"type": "Point", "coordinates": [-129.3099518450219, -70.74775156599594]}}, {"type": "Feature", "properties": {"norad_id": 66732, "name": "FLOCK 4H-29", "group": "last-30-days", "lat": -82.01672251263346, "lon": -175.98478427983184, "alt_km": 519.2424992303459, "timestamp": "2025-12-27T03:58:42.931544+00:00", "meta": {"OBJECT_NAME": "FLOCK 4H-29", "OBJECT_ID": "2025-276BU", "EPOCH": "2025-12-26T14:08:41.141184", "MEAN_MOTION": 15.17472042, "ECCENTRICITY": 0.0001851, "INCLINATION": 97.4362, "RA_OF_ASC_NODE": 72.0901, "ARG_OF_PERICENTER": 253.8548, "MEAN_ANOMALY": 106.2482, "EPHEMERIS_TYPE": 0, "CLASSIFICATION_TYPE": "U", "NORAD_CAT_ID": 66732, "ELEMENT_SET_NO": 999, "REV_AT_EPOCH": 422, "BSTAR": 0.0051508, "MEAN_MOTION_DOT": 0.00104497, "MEAN_MOTION_DDOT": 0}, "tle": {"line1": "1 66732U 25276BU  25360.58936506  .00104497  00000+0  51508-2 0  9999", "line2": "2 66732  97.4362  72.0901 0001851 253.8548 106.2482 15.17472042  4220"}}, "geometry": {"type": "Point", "coordinates": [-175.98478427983184, -82.01672251263346]}}, {"type": "Feature", "properties": {"norad_id": 66733, "name": "FLOCK 4H-30", "group": "last-30-days", "lat": -77.50235663364532, "lon": -143.46228930340752, "alt_km": 519.1657301249461, "timestamp": "2025-12-27T03:58:42.931553+00:00", "meta": {"OBJECT_NAME": "FLOCK 4H-30", "OBJECT_ID": "2025-276BV", "EPOCH": "2025-12-26T17:20:23.218080", "MEAN_MOTION": 15.17304077, "ECCENTRICITY": 0.0003243, "INCLINATION": 97.4427, "RA_OF_ASC_NODE": 72.2438, "ARG_OF_PERICENTER": 245.4321, "MEAN_ANOMALY": 114.6574, "EPHEMERIS_TYPE": 0, "CLASSIFICATION_TYPE": "U", "NORAD_CAT_ID": 66733, "ELEMENT_SET_NO": 999, "REV_AT_EPOCH": 424, "BSTAR": 0.00054226, "MEAN_MOTION_DOT": 0.0001075, "MEAN_MOTION_DDOT": 0}, "tle": {"line1": "1 66733U 25276BV  25360.72249095  .00010750  00000+0  54226-3 0  9995", "line2": "2 66733  97.4427  72.2438 0003243 245.4321 114.6574 15.17304077  4242"}}, "geometry": {"type": "Point", "coordinates": [-143.46228930340752, -77.50235663364532]}}, {"type": "Feature", "properties": {"norad_id": 66734, "name": "FLOCK 4H-31", "group": "last-30-days", "lat": -77.40569270083931, "lon": -143.1224247957134, "alt_km": 521.7048780308505, "timestamp": "2025-12-27T03:58:42.931563+00:00", "meta": {"OBJECT_NAME": "FLOCK 4H-31", "OBJECT_ID": "2025-276BW", "EPOCH": "2025-12-26T18:55:22.010880", "MEAN_MOTION": 15.17238304, "ECCENTRICITY": 6.66e-05, "INCLINATION": 97.4364, "RA_OF_ASC_NODE": 72.2825, "ARG_OF_PERICENTER": 15.6931, "MEAN_ANOMALY": 344.4323, "EPHEMERIS_TYPE": 0, "CLASSIFICATION_TYPE": "U", "NORAD_CAT_ID": 66734, "ELEMENT_SET_NO": 999, "REV_AT_EPOCH": 425, "BSTAR": 0.00068565, "MEAN_MOTION_DOT": 0.00013589, "MEAN_MOTION_DDOT": 0}, "tle": {"line1": "1 66734U 25276BW  25360.78844920  .00013589  00000+0  68565-3 0  9994", "line2": "2 66734  97.4364  72.2825 0000666  15.6931 344.4323 15.17238304  4258"}}, "geometry": {"type": "Point", "coordinates": [-143.1224247957134, -77.40569270083931]}}, {"type": "Feature", "properties": {"norad_id": 66735, "name": "FLOCK 4H-32", "group": "last-30-days", "lat": -75.8737523959976, "lon": -138.61658998176267, "alt_km": 519.0106987077534, "timestamp": "2025-12-27T03:58:42.931574+00:00", "meta": {"OBJECT_NAME": "FLOCK 4H-32", "OBJECT_ID": "2025-276BX", "EPOCH": "2025-12-26T15:45:55.948320", "MEAN_MOTION": 15.17280876, "ECCENTRICITY": 0.0003607, "INCLINATION": 97.4421, "RA_OF_ASC_NODE": 72.1751, "ARG_OF_PERICENTER": 241.5292, "MEAN_ANOMALY": 118.5578, "EPHEMERIS_TYPE": 0, "CLASSIFICATION_TYPE": "U", "NORAD_CAT_ID": 66735, "ELEMENT_SET_NO": 999, "REV_AT_EPOCH": 423, "BSTAR": 0.00052323, "MEAN_MOTION_DOT": 0.00010364, "MEAN_MOTION_DDOT": 0}, "tle": {"line1": "1 66735U 25276BX  25360.65689755  .00010364  00000+0  52323-3 0  9997", "line2": "2 66735  97.4421  72.1751 0003607 241.5292 118.5578 15.17280876  4239"}}, "geometry": {"type": "Point", "coordinates": [-138.61658998176267, -75.8737523959976]}}, {"type": "Feature", "properties": {"norad_id": 66736, "name": "FLOCK 4H-33", "group": "last-30-days", "lat": 5.001521741555241, "lon": 72.06437895111088, "alt_km": 514.8074017004947, "timestamp": "2025-12-27T03:58:42.931583+00:00", "meta": {"OBJECT_NAME": "FLOCK 4H-33", "OBJECT_ID": "2025-276BY", "EPOCH": "2025-12-26T15:18:11.013408", "MEAN_MOTION": 15.18346209, "ECCENTRICITY": 0.0002878, "INCLINATION": 97.4419, "RA_OF_ASC_NODE": 72.2002, "ARG_OF_PERICENTER": 150.0957, "MEAN_ANOMALY": 210.0442, "EPHEMERIS_TYPE": 0, "CLASSIFICATION_TYPE": "U", "NORAD_CAT_ID": 66736, "ELEMENT_SET_NO": 999, "REV_AT_EPOCH": 423, "BSTAR": 0.00043311, "MEAN_MOTION_DOT": 8.832e-05, "MEAN_MOTION_DDOT": 0}, "tle": {"line1": "1 66736U 25276BY  25360.63762747  .00008832  00000+0  43311-3 0  9993", "line2": "2 66736  97.4419  72.2002 0002878 150.0957 210.0442 15.18346209  4230"}}, "geometry": {"type": "Point", "coordinates": [72.06437895111088, 5.001521741555241]}}, {"type": "Feature", "properties": {"norad_id": 66737, "name": "FLOCK 4H-34", "group": "last-30-days", "lat": -6.3163812930377174, "lon": 73.54962164195346, "alt_km": 517.0022681773189, "timestamp": "2025-12-27T03:58:42.931592+00:00", "meta": {"OBJECT_NAME": "FLOCK 4H-34", "OBJECT_ID": "2025-276BZ", "EPOCH": "2025-12-26T16:56:01.675680", "MEAN_MOTION": 15.18196447, "ECCENTRICITY": 0.0002817, "INCLINATION": 97.4433, "RA_OF_ASC_NODE": 72.2677, "ARG_OF_PERICENTER": 158.7235, "MEAN_ANOMALY": 201.4117, "EPHEMERIS_TYPE": 0, "CLASSIFICATION_TYPE": "U", "NORAD_CAT_ID": 66737, "ELEMENT_SET_NO": 999, "REV_AT_EPOCH": 349, "BSTAR": 0.00037574, "MEAN_MOTION_DOT": 7.619e-05, "MEAN_MOTION_DDOT": 0}, "tle": {"line1": "1 66737U 25276BZ  25360.70557495  .00007619  00000+0  37574-3 0  9990", "line2": "2 66737  97.4433  72.2677 0002817 158.7235 201.4117 15.18196447  3499"}}, "geometry": {"type": "Point", "coordinates": [73.54962164195346, -6.3163812930377174]}}]}